#cP2022  4  9  0  0  0.00000000     576 d+D   IGb14 EXT AIUB
## 2204 518400.00000000   300.00000000 59678 0.0000000000000
+   76   G01G02G03G04G05G06G07G08G09G10G11G12G13G14G15G16G17
+        G18G19G20G22G23G24G25G26G27G28G29G30G31G32R01R02R03
+        R04R05R07R08R09R12R13R14R15R17R18R19R20R21R22R24E01
+        E02E03E04E05E07E08E09E10E11E12E13E14E15E18E19E21E24
+        E25E26E27E30E31E33E34E36  0  0  0  0  0  0  0  0  0
++         5  7  6  7  7  6  7  6  6  6  8  7  7  7  7  7  7
++         8  7  7  7  6  6  6  6  6  7  7  7  7  5  7  6  7
++         7  7  6  6  6  8  9  7  8  8  7  8  8  8  9  8  6
++         6  6  6  6  6  6  6  7  8  8  6  7  6  6  8  6  6
++         6  6  6  6  6  7  7  7  0  0  0  0  0  0  0  0  0
%c M  cc GPS ccc cccc cccc cccc cccc ccccc ccccc ccccc ccccc
%c cc cc ccc ccc cccc cccc cccc cccc ccccc ccccc ccccc ccccc
%f  1.2500000  1.025000000  0.00000000000  0.000000000000000
%f  0.0000000  0.000000000  0.00000000000  0.000000000000000
%i    0    0    0    0      0      0      0      0         0
%i    0    0    0    0      0      0      0      0         0
/* Center for Orbit Determination in Europe (CODE)          
/* Ultra-rapid GRE orbits starting year-day 22099 00 hour   
/* Observed/predicted: 24/24 hours (data used up to 099X)   
/* PCV:IGS14      OL/AL:FES2014b NONE     YN ORB:CoN CLK:BRD
*  2022  4  9 21 15  0.00000000
PG01  19344.124443   9826.005010  15270.614766    388.773327
PG02 -14315.637095 -21877.058498   4857.921522   -653.013663
PG03  16066.184617   -967.389351  21000.844419   -199.997089
PG04  26188.764147   1262.785826   4526.042841   -177.220148
PG05  -9067.596548 -15132.974291 -19971.537855    -77.723608
PG06  -1475.417454 -20719.170923  16570.945616    260.961580
PG07  13942.934335  -6595.018473 -21262.747561    319.655559
PG08  21958.607487   6746.652997 -13670.693845    -63.265344
PG09  24784.383509  -7478.422685  -6072.935584   -344.751367
PG10 -11423.702969  23755.153189  -1337.601685   -373.924081
PG11 -12554.409547 -23219.469059   3022.096792    -47.195319
PG12 -14654.423224  -3888.366520  21527.044526   -197.889309
PG13 -14384.081258 -13021.648603 -18364.142346    291.358549
PG14  13092.962906 -22939.176310  -2344.184213   -101.269008
PG15 -22916.309964  -4721.757946 -13271.260172    -70.195870
PG16   3992.569492  18812.732688 -18384.554865   -489.979688
PG17  12923.761703 -13551.429657  19288.133770    598.273365
PG18 -13706.492543   6432.381626 -21833.135352    199.496710
PG19   5278.773135 -14407.374133  21392.296138    142.255480
PG20  -3809.932626 -22869.585886 -13162.027554    515.901874
PG22  -1669.976560  15389.367244  21984.043335    240.817767
PG23 -16002.093852  17492.566733 -11884.636155    -13.703255
PG24 -21043.229236 -12016.560274  11037.037405    258.663575
PG25 -17370.540615  10904.051962  16435.109541    309.817672
PG26  -2859.583252  24902.671819  -8384.764450    197.399626
PG27  11392.141392  12860.128791 -20568.961819    178.980354
PG28   8163.466858 -24543.026373   7055.830896    372.762022
PG29 -25750.881528   4262.223734  -5143.289527   -501.236736
PG30   7470.649564 -15292.117086 -20259.620132   -523.004915
PG31   2919.534320  21894.328819  14275.377875   -172.713952
PG32  -9486.937472  15084.704653  19775.460689   -102.040280
PR01  -4857.132391 -10012.724909 -22944.765757      7.675228
PR02 -19810.855429   3578.358404 -15577.943489    515.034734
PR03 -21387.561923  13828.990389    798.405008     54.643117
PR04 -11154.267574  15985.041667  16482.730880    135.935446
PR05   5267.374863   9452.131807  23115.436770     90.862457
PR07  21269.934041 -14051.524548  -1387.624579     33.672759
PR08  11035.475064 -16061.199707 -16411.433472    -64.509479
PR09  11292.382388   5514.185376 -22194.418135     48.927968
PR12  -6556.011722 -21662.858029  11805.474155     17.842404
PR13 -10915.087833  -6836.681550  21998.691775    -20.642698
PR14  -8939.675940  13530.867081  19701.588798     76.341597
PR15  -1808.445343  24773.225916   5821.724076     96.945530
PR17 -15501.953761   2052.973950 -20157.087860    516.221335
PR18    142.293713  11663.886717 -22680.022867    113.037126
PR19  14338.660649  15614.351827 -14191.900607   -184.753861
PR20  22657.850908  10330.117543   5652.320423    -68.317719
PR21  14309.610398  -2915.207424  20906.343228   -292.050328
PR22   -826.553666 -11925.031510  22501.641304   -175.897932
PR24 -22909.952565  -9309.752523  -6255.429429     88.326398
PE01 -12245.945528  26282.949417   5926.611186   -613.261239
PE02  12169.979349 -26368.091506  -5784.241857    291.785934
PE03  16356.137258 -16892.413718 -17970.125817   -546.313138
PE04   5078.330279  16329.308980  24171.501789  -1003.045097
PE05  28605.784834  -7528.689307  -1071.535554   -192.363430
PE07 -24037.224289  -6056.338759 -16174.295251   -656.976546
PE08  -5494.468260 -16059.098375 -24244.863027   -509.588810
PE09  24132.736132   5778.977238  16133.754526   -478.693944
PE10  19107.855117  22445.649777  -2730.011321   -505.696893
PE11  22998.663481  17051.502148   7554.677001   4003.216888
PE12  12257.162334  24157.948857 -11962.582184   4670.951457
PE13 -22875.408351 -17450.020935  -6922.589470    427.912079
PE14 -11278.096512  19723.682389 -23134.741528  -1808.354632
PE15 -12200.130304 -24079.780159  12135.459533    752.653966
PE18   1887.648222 -15155.692250  18191.544764  -1583.669129
PE19 -18656.990187  16111.133961  16395.972668  -2744.047976
PE21 -18009.103127  11694.700310  20365.168569   -727.509836
PE24  13279.764837  11841.999836 -23668.900692   -552.124093
PE25  18030.369703 -11425.565879 -20509.990171   -569.823405
PE26 -19645.360222    363.296311 -22132.531181  -1011.510772
PE27 -13842.634044 -10518.010486  23955.818220   -272.562572
PE30   -733.539612 -26803.941907  12542.151569   -417.669080
PE31   1572.028411  26332.998306 -13418.906856   -494.819358
PE33  -5595.165417  16491.766091 -23933.970289   -457.764778
PE34   5395.135605 -16633.032770  23877.044594   -511.219766
PE36  20049.554646    632.883078  21774.589882   -357.380398
EOF
